{"type": "FeatureCollection", "features": [ {"type": "Feature", "properties": {"norad_id": 33651, "name": "FENGYUN 1C DEB", "group": "fengyun-1c-debris", "lat": 52.32640991283785, "lon": -127.61311706361882, "alt_km": 830.3771882696847, "timestamp": "2025-12-21T14:40:48.203541+00:00", "meta": {"OBJECT_NAME": "FENGYUN 1C DEB", "OBJECT_ID": "1999-025DEL", "EPOCH": "2025-12-17T20:29:25.038528", "MEAN_MOTION": 14.20359237, "ECCENTRICITY": 0.01175795, "INCLINATION": 98.6561, "RA_OF_ASC_NODE": 37.3301, "ARG_OF_PERICENTER": 39.3483, "MEAN_ANOMALY": 321.6163, "EPHEMERIS_TYPE": 0, "CLASSIFICATION_TYPE": "U", "NORAD_CAT_ID": 33651, "ELEMENT_SET_NO": 999, "REV_AT_EPOCH": 64344, "BSTAR": 0.00012967069, "MEAN_MOTION_DOT": 2.55e-06, "MEAN_MOTION_DDOT": 0}, "tle": {"line1": "1 33651U 99025DEL 25351.85376202  .00000255  00000+0  12967-3 0  9991", "line2": "2 33651  98.6561  37.3301 0117579  39.3483 321.6163 14.20359237643441"}}, "geometry": {"type": "Point", "coordinates": [-127.61311706361882, 52.32640991283785]}}, {"type": "Feature", "properties": {"norad_id": 33655, "name": "FENGYUN 1C DEB", "group": "fengyun-1c-debris", "lat": 45.11664489097703, "lon": -109.06478122697524, "alt_km": 600.5831921263798, "timestamp": "2025-12-21T14:40:48.203552+00:00", "meta": {"OBJECT_NAME": "FENGYUN 1C DEB", "OBJECT_ID": "1999-025DEQ", "EPOCH": "2025-12-18T15:32:46.465728", "MEAN_MOTION": 14.97947249, "ECCENTRICITY": 0.00469882, "INCLINATION": 98.8013, "RA_OF_ASC_NODE": 58.647, "ARG_OF_PERICENTER": 338.9181, "MEAN_ANOMALY": 21.01, "EPHEMERIS_TYPE": 0, "CLASSIFICATION_TYPE": "U", "NORAD_CAT_ID": 33655, "ELEMENT_SET_NO": 999, "REV_AT_EPOCH": 96646, "BSTAR": 0.0012708944, "MEAN_MOTION_DOT": 0.0001528, "MEAN_MOTION_DDOT": 0}, "tle": {"line1": "1 33655U 99025DEQ 25352.64776002  .00015280  00000+0  12709-2 0  9992", "line2": "2 33655  98.8013  58.6470 0046988 338.9181  21.0100 14.97947249966462"}}, "geometry": {"type": "Point", "coordinates": [-109.06478122697524, 45.11664489097703]}}, {"type": "Feature", "properties": {"norad_id": 33656, "name": "FENGYUN 1C DEB", "group": "fengyun-1c-debris", "lat": 14.517181639642786, "lon": -13.796604429474012, "alt_km": 752.8369538552388, "timestamp": "2025-12-21T14:40:48.203562+00:00", "meta": {"OBJECT_NAME": "FENGYUN 1C DEB", "OBJECT_ID": "1999-025DER", "EPOCH": "2025-12-20T04:51:21.991104", "MEAN_MOTION": 14.22745912, "ECCENTRICITY": 0.00901757, "INCLINATION": 98.5789, "RA_OF_ASC_NODE": 347.071, "ARG_OF_PERICENTER": 9.8407, "MEAN_ANOMALY": 350.4511, "EPHEMERIS_TYPE": 0, "CLASSIFICATION_TYPE": "U", "NORAD_CAT_ID": 33656, "ELEMENT_SET_NO": 999, "REV_AT_EPOCH": 62815, "BSTAR": 0.0003172493, "MEAN_MOTION_DOT": 6.98e-06, "MEAN_MOTION_DDOT": 0}, "tle": {"line1": "1 33656U 99025DER 25354.20233786  .00000698  00000+0  31725-3 0  9991", "line2": "2 33656  98.5789 347.0710 0090175   9.8407 350.4511 14.22745912628151"}}, "geometry": {"type": "Point", "coordinates": [-13.796604429474012, 14.517181639642786]}}, {"type": "Feature", "properties": {"norad_id": 33658, "name": "FENGYUN 1C DEB", "group": "fengyun-1c-debris", "lat": -38.211900790926855, "lon": 156.2797771487445, "alt_km": 1232.156813306984, "timestamp": "2025-12-21T14:40:48.203572+00:00", "meta": {"OBJECT_NAME": "FENGYUN 1C DEB", "OBJECT_ID": "1999-025DET", "EPOCH": "2025-12-21T04:18:20.910816", "MEAN_MOTION": 13.62407689, "ECCENTRICITY": 0.02824588, "INCLINATION": 99.5635, "RA_OF_ASC_NODE": 148.2286, "ARG_OF_PERICENTER": 159.8991, "MEAN_ANOMALY": 201.3543, "EPHEMERIS_TYPE": 0, "CLASSIFICATION_TYPE": "U", "NORAD_CAT_ID": 33658, "ELEMENT_SET_NO": 999, "REV_AT_EPOCH": 58254, "BSTAR": 0.001823251, "MEAN_MOTION_DOT": 1.806e-05, "MEAN_MOTION_DDOT": 0}, "tle": {"line1": "1 33658U 99025DET 25355.17940869  .00001806  00000+0  18233-2 0  9997", "line2": "2 33658  99.5635 148.2286 0282458 159.8991 201.3543 13.62407689582544"}}, "geometry": {"type": "Point", "coordinates": [156.2797771487445, -38.211900790926855]}}, {"type": "Feature", "properties": {"norad_id": 33660, "name": "FENGYUN 1C DEB", "group": "fengyun-1c-debris", "lat": 51.47053071039437, "lon": 97.2430089134408, "alt_km": 922.1127871070366, "timestamp": "2025-12-21T14:40:48.203583+00:00", "meta": {"OBJECT_NAME": "FENGYUN 1C DEB", "OBJECT_ID": "1999-025DEV", "EPOCH": "2025-12-20T06:01:35.952384", "MEAN_MOTION": 13.91779526, "ECCENTRICITY": 0.0109795, "INCLINATION": 98.657, "RA_OF_ASC_NODE": 264.9426, "ARG_OF_PERICENTER": 225.2397, "MEAN_ANOMALY": 290.4354, "EPHEMERIS_TYPE": 0, "CLASSIFICATION_TYPE": "U", "NORAD_CAT_ID": 33660, "ELEMENT_SET_NO": 999, "REV_AT_EPOCH": 91168, "BSTAR": 0.00029646, "MEAN_MOTION_DOT": 3.55e-06, "MEAN_MOTION_DDOT": 0}, "tle": {"line1": "1 33660U 99025DEV 25354.25111056  .00000355  00000+0  29646-3 0  9995", "line2": "2 33660  98.6570 264.9426 0109795 225.2397 290.4354 13.91779526911681"}}, "geometry": {"type": "Point", "coordinates": [97.2430089134408, 51.47053071039437]}}, {"type": "Feature", "properties": {"norad_id": 33663, "name": "FENGYUN 1C DEB", "group": "fengyun-1c-debris", "lat": -61.6195184434245, "lon": 4.30306564547516, "alt_km": 655.0314694320095, "timestamp": "2025-12-21T14:40:48.203608+00:00", "meta": {"OBJECT_NAME": "FENGYUN 1C DEB", "OBJECT_ID": "1999-025DEY", "EPOCH": "2025-12-19T16:59:12.916032", "MEAN_MOTION": 14.62420934, "ECCENTRICITY": 0.0080658, "INCLINATION": 98.8853, "RA_OF_ASC_NODE": 345.4244, "ARG_OF_PERICENTER": 352.5038, "MEAN_ANOMALY": 7.4949, "EPHEMERIS_TYPE": 0, "CLASSIFICATION_TYPE": "U", "NORAD_CAT_ID": 33663, "ELEMENT_SET_NO": 999, "REV_AT_EPOCH": 64304, "BSTAR": 0.0040155279, "MEAN_MOTION_DOT": 0.00021295, "MEAN_MOTION_DDOT": 0}, "tle": {"line1": "1 33663U 99025DEY 25353.70778838  .00021295  00000+0  40155-2 0  9997", "line2": "2 33663  98.8853 345.4244 0080658 352.5038   7.4949 14.62420934643048"}}, "geometry": {"type": "Point", "coordinates": [4.30306564547516, -61.6195184434245]}}, {"type": "Feature", "properties": {"norad_id": 33664, "name": "FENGYUN 1C DEB", "group": "fengyun-1c-debris", "lat": 54.10774748494619, "lon": -23.801827969220394, "alt_km": 913.264889918275, "timestamp": "2025-12-21T14:40:48.203620+00:00", "meta": {"OBJECT_NAME": "FENGYUN 1C DEB", "OBJECT_ID": "1999-025DEZ", "EPOCH": "2025-12-17T09:11:19.801248", "MEAN_MOTION": 14.03997505, "ECCENTRICITY": 0.01641224, "INCLINATION": 98.6999, "RA_OF_ASC_NODE": 139.9327, "ARG_OF_PERICENTER": 27.0521, "MEAN_ANOMALY": 333.9084, "EPHEMERIS_TYPE": 0, "CLASSIFICATION_TYPE": "U", "NORAD_CAT_ID": 33664, "ELEMENT_SET_NO": 999, "REV_AT_EPOCH": 90804, "BSTAR": 0.00016492349, "MEAN_MOTION_DOT": 2.52e-06, "MEAN_MOTION_DDOT": 0}, "tle": {"line1": "1 33664U 99025DEZ 25351.38286807  .00000252  00000+0  16492-3 0  9998", "line2": "2 33664  98.6999 139.9327 0164122  27.0521 333.9084 14.03997505908045"}}, "geometry": {"type": "Point", "coordinates": [-23.801827969220394, 54.10774748494619]}}, {"type": "Feature", "properties": {"norad_id": 33665, "name": "FENGYUN 1C DEB", "group": "fengyun-1c-debris", "lat": -46.3213004746352, "lon": -76.48304066815194, "alt_km": 1195.649399266622, "timestamp": "2025-12-21T14:40:48.203631+00:00", "meta": {"OBJECT_NAME": "FENGYUN 1C DEB", "OBJECT_ID": "1999-025DFA", "EPOCH": "2025-12-20T03:25:09.204960", "MEAN_MOTION": 14.03669728, "ECCENTRICITY": 0.04554396, "INCLINATION": 99.0218, "RA_OF_ASC_NODE": 111.6308, "ARG_OF_PERICENTER": 71.5821, "MEAN_ANOMALY": 293.4295, "EPHEMERIS_TYPE": 0, "CLASSIFICATION_TYPE": "U", "NORAD_CAT_ID": 33665, "ELEMENT_SET_NO": 999, "REV_AT_EPOCH": 92695, "BSTAR": 0.00032083193, "MEAN_MOTION_DOT": 1.229e-05, "MEAN_MOTION_DDOT": 0}, "tle": {"line1": "1 33665U 99025DFA 25354.14246765  .00001229  00000+0  32083-3 0  9994", "line2": "2 33665  99.0218 111.6308 0455439  71.5821 293.4295 14.03669728926959"}}, "geometry": {"type": "Point", "coordinates": [-76.48304066815194, -46.3213004746352]}}, {"type": "Feature", "properties": {"norad_id": 33673, "name": "FENGYUN 1C DEB", "group": "fengyun-1c-debris", "lat": -75.04821967315621, "lon": 80.60372587715923, "alt_km": 904.0806300108934, "timestamp": "2025-12-21T14:40:48.203641+00:00", "meta": {"OBJECT_NAME": "FENGYUN 1C DEB", "OBJECT_ID": "1999-025DFJ", "EPOCH": "2025-12-14T22:10:11.155872", "MEAN_MOTION": 13.95539618, "ECCENTRICITY": 0.01078755, "INCLINATION": 99.3438, "RA_OF_ASC_NODE": 35.7625, "ARG_OF_PERICENTER": 218.3859, "MEAN_ANOMALY": 320.4406, "EPHEMERIS_TYPE": 0, "CLASSIFICATION_TYPE": "U", "NORAD_CAT_ID": 33673, "ELEMENT_SET_NO": 999, "REV_AT_EPOCH": 89932, "BSTAR": 0.00032222239, "MEAN_MOTION_DOT": 4.13e-06, "MEAN_MOTION_DDOT": 0}, "tle": {"line1": "1 33673U 99025DFJ 25348.92374023  .00000413  00000+0  32222-3 0  9990", "line2": "2 33673  99.3438  35.7625 0107875 218.3859 320.4406 13.95539618899322"}}, "geometry": {"type": "Point", "coordinates": [80.60372587715923, -75.04821967315621]}}, {"type": "Feature", "properties": {"norad_id": 33674, "name": "FENGYUN 1C DEB", "group": "fengyun-1c-debris", "lat": -71.59760238189473, "lon": 71.789999458755, "alt_km": 925.6511230871338, "timestamp": "2025-12-21T14:40:48.203651+00:00", "meta": {"OBJECT_NAME": "FENGYUN 1C DEB", "OBJECT_ID": "1999-025DFK", "EPOCH": "2025-12-18T13:47:35.828736", "MEAN_MOTION": 13.76913181, "ECCENTRICITY": 0.02118358, "INCLINATION": 98.6051, "RA_OF_ASC_NODE": 41.9667, "ARG_OF_PERICENTER": 224.6341, "MEAN_ANOMALY": 133.7588, "EPHEMERIS_TYPE": 0, "CLASSIFICATION_TYPE": "U", "NORAD_CAT_ID": 33674, "ELEMENT_SET_NO": 999, "REV_AT_EPOCH": 88445, "BSTAR": 0.0015930456, "MEAN_MOTION_DOT": 1.813e-05, "MEAN_MOTION_DDOT": 0}, "tle": {"line1": "1 33674U 99025DFK 25352.57472024  .00001813  00000+0  15930-2 0  9998", "line2": "2 33674  98.6051  41.9667 0211835 224.6341 133.7588 13.76913181884453"}}, "geometry": {"type": "Point", "coordinates": [71.789999458755, -71.59760238189473]}}]}